1 45223U 20012AX  23028.82468807  .00001244  00000-0  10238-3 0  9997
2 45223  53.0568  65.6954 0001371  87.0008 273.1138 15.06400482164203
1 45223U 20012AX  23029.81988500  .00002671  00000-0  19808-3 0  9991
2 45223  53.0554  61.2261 0001214  95.2771 264.8356 15.06408009164353
1 45223U 20012AX  23030.21797365  .00002145  00000-0  16288-3 0  9999
2 45223  53.0547  59.4384 0001221  98.0384 262.0744 15.06395975163479
1 45223U 20012AX  23030.48335817  .00000876  00000-0  77713-4 0  9998
2 45223  53.0553  58.2465 0001234 102.6434 257.4693 15.06400234164450
1 45223U 20012AX  23031.47856110  .00000597  00000-0  58983-4 0  9990
2 45223  53.0560  53.7804 0001249  97.0823 263.0308 15.06402191164607
1 45223U 20012AX  23031.47856110  .00000597  00000-0  58983-4 0  9990
2 45223  53.0560  53.7804 0001249  97.0823 263.0308 15.06402191163662
1 45223U 20012AX  23031.74394920  .00000091  00000-0  25005-4 0  9994
2 45223  53.0561  52.5898 0001185 100.2489 259.8634 15.06401183164641
1 45223U 20012AX  23032.47376491  .00000995  00000-0  85658-4 0  9991
2 45223  53.0576  49.3131 0001281  93.6131 266.5004 15.06400696164753
1 45223U 20012AX  23032.73915697 -.00000505  00000-0 -15046-4 0  9990
2 45223  53.0572  48.1216 0001220 115.8867 244.2248 15.06395830163852
1 45223U 20012AX  23033.07089761 -.00000556  00000-0 -18422-4 0  9999
2 45223  53.0570  46.6324 0001211  91.7211 268.3917 15.06389794163906
1 45223U 20012AX  23033.33628114  .00000322  00000-0  40485-4 0  9992
2 45223  53.0572  45.4412 0001442  96.2919 263.8234 15.06395374164885
1 45223U 20012AX  23033.33628114  .00000322  00000-0  40485-4 0  9992
2 45223  53.0572  45.4412 0001442  96.2919 263.8234 15.06395374163941
1 45223U 20012AX  23034.33147872  .00001681  00000-0  13169-3 0  9997
2 45223  53.0577  40.9736 0001424  95.0416 265.0735 15.06403653165036
1 45223U 20012AX  23034.33147872  .00001681  00000-0  13169-3 0  9997
2 45223  53.0577  40.9736 0001424  95.0416 265.0735 15.06403653164091
1 45223U 20012AX  23035.39302776  .00002532  00000-0  18876-3 0  9996
2 45223  53.0562  36.2077 0001520  95.7964 264.3198 15.06405358165194
1 45223U 20012AX  23035.39302776  .00002532  00000-0  18876-3 0  9996
2 45223  53.0562  36.2077 0001520  95.7964 264.3198 15.06405358164250
1 45223U 20012AX  23036.38823511 -.00000417  00000-0 -90963-5 0  9992
2 45223  53.0559  31.7394 0001494  98.9325 261.1833 15.06397645165345
1 45223U 20012AX  23036.38823511 -.00000417  00000-0 -90963-5 0  9992
2 45223  53.0559  31.7394 0001494  98.9325 261.1833 15.06397645164401
1 45223U 20012AX  23037.38343413  .00001561  00000-0  12367-3 0  9990
2 45223  53.0573  27.2714 0001557 103.5976 256.5186 15.06403135165499
1 45223U 20012AX  23038.24593878  .00004714  00000-0  33503-3 0  9996
2 45223  53.0553  23.4012 0001363  92.7145 267.4000 15.06413861164681
1 45223U 20012AX  23038.37862985  .00006069  00000-0  42578-3 0  9995
2 45223  53.0559  22.8055 0001387  93.5861 266.5287 15.06419437165646
1 45223U 20012AX  23039.24114359  .00001352  00000-0  10963-3 0  9990
2 45223  53.0559  18.9339 0001146  96.7824 263.3296 15.06404593164836
1 45223U 20012AX  23039.30748965  .00002211  00000-0  16723-3 0  9998
2 45223  53.0561  18.6358 0001192  97.2911 262.8214 15.06406913165788
1 45223U 20012AX  23040.23635531 -.00000830  00000-0 -36830-4 0  9995
2 45223  53.0577  14.4681 0001362  93.4175 266.6970 15.06392479164980
1 45223U 20012AX  23040.30270291 -.00000750  00000-0 -31468-4 0  9994
2 45223  53.0577  14.1681 0001254  87.3379 272.7753 15.06390587165936
1 45223U 20012AX  23041.16522731 -.00000081  00000-0  13479-4 0  9996
2 45223  53.0573  10.3000 0001306 115.0597 245.0528 15.06382845166060
1 45223U 20012AX  23041.29791705  .00002563  00000-0  19089-3 0  9997
2 45223  53.0577   9.7020 0001098 102.0255 258.0857 15.06394943166086
1 45223U 20012AX  23041.29791705  .00002563  00000-0  19089-3 0  9997
2 45223  53.0577   9.7020 0001098 102.0255 258.0857 15.06394943165142
1 45223U 20012AX  23042.16041765  .00013586  00000-0  92862-3 0  9995
2 45223  53.0595   5.8276 0001209 141.7008 218.4068 15.06423695165277
1 45223U 20012AX  23042.29310618  .00020337  00000-0  13786-2 0  9994
2 45223  53.0556   5.2371 0001134  87.1683 272.9436 15.06445024166234
1 45223U 20012AX  23042.29310618  .00020337  00000-0  13786-2 0  9994
2 45223  53.0556   5.2371 0001134  87.1683 272.9436 15.06445024165299
1 45223U 20012AX  23042.89023165  .00003139  00000-0  22942-3 0  9994
2 45223  53.0555   2.5574 0001434  79.0656 281.0494 15.06413359166322
1 45223U 20012AX  23043.15561276  .00000688  00000-0  65049-4 0  9996
2 45223  53.0562   1.3617 0001083  88.7502 271.3611 15.06416457165427
1 45223U 20012AX  23043.35464952  .00015531  00000-0  10584-2 0  9996
2 45223  53.0570   0.4692 0001119  81.3180 278.7936 15.06429560166397
1 45223U 20012AX  23043.35464952  .00015531  00000-0  10584-2 0  9996
2 45223  53.0570   0.4692 0001119  81.3180 278.7936 15.06429560165453
1 45223U 20012AX  23044.15082603  .00026866  00000-0  18155-2 0  9999
2 45223  53.0567 356.8976 0001805  76.2130 283.9059 15.06402796165571
1 45223U 20012AX  23044.54890611  .00029124  00000-0  19653-2 0  9992
2 45223  53.0573 355.1108 0000792  12.1834 347.9174 15.06413823166574
1 45223U 20012AX  23044.54890611  .00029124  00000-0  19653-2 0  9992
2 45223  53.0573 355.1108 0000792  12.1834 347.9174 15.06413823165630
1 45223U 20012AX  23045.14602838  .00038731  00000-0  26030-2 0  9992
2 45223  53.0571 352.4286 0001326  84.1538 275.9602 15.06426211165720
1 45223U 20012AX  23045.54410964  .00025388  00000-0  17169-2 0  9990
2 45223  53.0571 350.6413 0001661  80.3500 279.7676 15.06404719166724
1 45223U 20012AX  23045.54410964  .00025388  00000-0  17169-2 0  9990
2 45223  53.0571 350.6413 0001661  80.3500 279.7676 15.06404719165789
1 45223U 20012AX  23046.14123135  .00005825  00000-0  40952-3 0  9999
2 45223  53.0588 347.9643 0001518 106.0186 254.0971 15.06408138165871
1 45223U 20012AX  23046.53931117  .00010211  00000-0  70323-3 0  9999
2 45223  53.0559 346.1743 0001009  91.1500 268.9605 15.06409520166875
1 45223U 20012AX  23047.53451623  .00001902  00000-0  14653-3 0  9990
2 45223  53.0556 341.7079 0001653  75.9091 284.2081 15.06400566167023
1 45223U 20012AX  23047.53451623  .00001902  00000-0  14653-3 0  9990
2 45223  53.0556 341.7079 0001653  75.9091 284.2081 15.06400566166088
1 45223U 20012AX  23048.19797344  .00012785  00000-0  87487-3 0  9992
2 45223  53.0570 338.7285 0001395  83.7518 276.3630 15.06431219166185
1 45223U 20012AX  23048.52972592 -.00003107  00000-0 -18982-3 0  9993
2 45223  53.0567 337.2409 0002283  62.1627 297.9593 15.06384690167179
1 45223U 20012AX  23048.52972592 -.00003107  00000-0 -18982-3 0  9993
2 45223  53.0567 337.2409 0002283  62.1627 297.9593 15.06384690166235
1 45223U 20012AX  23048.99416438 -.00005247  00000-0 -33383-3 0  9995
2 45223  53.0594 335.1516 0001975  70.8524 289.2678 15.06371800166305
1 45223U 20012AX  23049.06051352 -.00007230  00000-0 -46733-3 0  9991
2 45223  53.0571 334.8552 0001360  73.8228 286.2911 15.06373709167250
1 45223U 20012AX  23050.12204490  .00004052  00000-0  29059-3 0  9992
2 45223  53.0570 330.0907 0001661  63.9306 296.1853 15.06424808166477
1 45223U 20012AX  23050.25473371  .00005847  00000-0  41077-3 0  9999
2 45223  53.0572 329.4951 0001711  60.0608 300.0551 15.06430719167434
1 45223U 20012AX  23050.91822158  .00005435  00000-0  38355-3 0  9991
2 45223  53.0574 326.5203 0001807  46.6130 313.5009 15.06392397166592
1 45223U 20012AX  23051.18359380  .00007823  00000-0  54309-3 0  9993
2 45223  53.0572 325.3271 0001700  56.7153 303.3999 15.06426641166631
1 45223U 20012AX  23051.44897470  .00023979  00000-0  16212-2 0  9999
2 45223  53.0570 324.1354 0001606  62.5306 297.5846 15.06445809167619
1 45223U 20012AX  23051.91338477  .00026394  00000-0  17809-2 0  9995
2 45223  53.0566 322.0513 0001560  64.2604 295.8546 15.06468898166741
1 45223U 20012AX  23052.44415128 -.00023432  00000-0 -15593-2 0  9993
2 45223  53.0563 319.6678 0001255  84.3142 275.7990 15.06401684167766
1 45223U 20012AX  23052.44415128 -.00023432  00000-0 -15593-2 0  9993
2 45223  53.0563 319.6678 0001255  84.3142 275.7990 15.06401684166822
1 45223U 20012AX  23052.90859052  .00006646  00000-0  46501-3 0  9992
2 45223  53.0556 317.5841 0001458  90.1884 269.9272 15.06368854167837
1 45223U 20012AX  23053.10763606  .00025503  00000-0  17263-2 0  9999
2 45223  53.0554 316.6906 0001342  93.1454 266.9689 15.06368036167869
1 45223U 20012AX  23053.10763606  .00025503  00000-0  17263-2 0  9999
2 45223  53.0554 316.6906 0001342  93.1454 266.9689 15.06368036166925
1 45223U 20012AX  23053.90380497  .00023229  00000-0  15731-2 0  9991
2 45223  53.0554 313.1175 0001410  98.0139 262.1010 15.06402457167984
1 45223U 20012AX  23054.10284385  .00024911  00000-0  16847-2 0  9991
2 45223  53.0552 312.2232 0001413  94.3918 265.7232 15.06414051168016
1 45223U 20012AX  23054.96537140  .00021406  00000-0  14524-2 0  9991
2 45223  53.0555 308.3509 0000968  58.4145 301.6938 15.06380166168145
1 45223U 20012AX  23054.96537140  .00021406  00000-0  14524-2 0  9991
2 45223  53.0555 308.3509 0000968  58.4145 301.6938 15.06380166167201
1 45223U 20012AX  23055.09806658  .00021803  00000-0  14787-2 0  9991
2 45223  53.0552 307.7547 0001368  75.9048 284.2093 15.06384665168166
1 45223U 20012AX  23055.96057148  .00017178  00000-0  11688-2 0  9996
2 45223  53.0559 303.8824 0001433  81.4820 278.6332 15.06416605168298
1 45223U 20012AX  23055.96057148  .00017178  00000-0  11688-2 0  9996
2 45223  53.0559 303.8824 0001433  81.4820 278.6332 15.06416605167354
1 45223U 20012AX  23055.96057155  .00016949  00000-0  11535-2 0  9990
2 45223  53.0561 303.8825 0001429  81.7198 278.3953 15.06416228168295
1 45223U 20012AX  23056.95578255  .00006582  00000-0  46041-3 0  9992
2 45223  53.0560 299.4152 0001148  91.4557 268.6563 15.06392819168447
1 45223U 20012AX  23057.08847950  .00021512  00000-0  14590-2 0  9991
2 45223  53.0558 298.8193 0001075  91.7724 268.3388 15.06391212168460
